IRIDIUM 106             
1 41917U 17003A   26167.53734041  .00000023  00000+0  10685-5 0  9991
2 41917  86.3962  88.8279 0001768  85.4600 274.6797 14.34217586493116
IRIDIUM 103             
1 41918U 17003B   26167.52465626  .00000053  00000+0  11813-4 0  9997
2 41918  86.3963  88.7331 0002303  78.0444 282.1010 14.34217665493138
IRIDIUM 109             
1 41919U 17003C   26167.53099897  .00000005  00000+0 -54486-5 0  9994
2 41919  86.3962  88.7898 0002151  82.9153 277.2287 14.34217424493109
IRIDIUM 102             
1 41920U 17003D   26167.49928421  .00000126  00000+0  37894-4 0  9991
2 41920  86.3961  88.7266 0002232  85.9381 274.2070 14.34218648493189
IRIDIUM 105             
1 41921U 17003E   26167.59741908  .00000182  00000+0  57874-4 0  9998
2 41921  86.3965  57.1170 0002489  82.7828 277.3650 14.34219514495052
IRIDIUM 104             
1 41922U 17003F   26167.51197136  .00000039  00000+0  68943-5 0  9990
2 41922  86.3962  88.7639 0002456  80.5444 279.6029 14.34217714493170
IRIDIUM 114             
1 41923U 17003G   26167.51831341  .00000057  00000+0  13186-4 0  9992
2 41923  86.3962  88.7445 0002322  80.9452 279.2007 14.34217876493150
IRIDIUM 108             
1 41924U 17003H   26167.40706394  .00000163  00000+0  51118-4 0  9995
2 41924  86.3959  57.0866 0002248  86.4676 273.6777 14.34219033494991
IRIDIUM 112             
1 41925U 17003J   26167.50562888  .00000026  00000+0  23794-5 0  9993
2 41925  86.3958  88.5918 0002329  84.0750 276.0712 14.34217400493176
IRIDIUM 111             
1 41926U 17003K   26167.49295214  .00000221  00000+0  72027-4 0  9997
2 41926  86.3960  88.6677 0002248  82.6591 277.4860 14.34217622493153
IRIDIUM 113             
1 42803U 17039A   26167.47290739  .00000020  00000+0 -37883-7 0  9998
2 42803  86.3968 322.4772 0002269  89.1999 270.9457 14.34217739471085
IRIDIUM 123             
1 42804U 17039B   26167.58415329  .00000096  00000+0  27360-4 0  9993
2 42804  86.3971 353.8892 0002006  85.8170 274.3255 14.34218020469865
IRIDIUM 120             
1 42805U 17039C   26167.46656356  .00000204  00000+0  65724-4 0  9995
2 42805  86.3958 322.2625 0002019  95.0641 265.0785 14.34216318471074
IRIDIUM 115             
1 42806U 17039D   26167.35592514  .00000166  00000+0  43207-4 0  9998
2 42806  86.4495 322.4373 0001990  90.4533 269.6896 14.43282675474143
IRIDIUM 118             
1 42807U 17039E   26167.47632700  .00000142  00000+0  43721-4 0  9999
2 42807  86.3971 353.9326 0002180  88.6205 271.5240 14.34219262469844
IRIDIUM 117             
1 42808U 17039F   26167.56512600  .00000002  00000+0 -63939-5 0  9996
2 42808  86.3968 353.8531 0002006  86.8692 273.2733 14.34217657469881
IRIDIUM 126             
1 42809U 17039G   26167.59049420  .00000186  00000+0  59408-4 0  9992
2 42809  86.3970 353.8935 0002211  85.2330 274.9119 14.34219264469863
IRIDIUM 124             
1 42810U 17039H   26167.63640330  .00000258  00000+0  70776-4 0  9997
2 42810  86.4483 290.5891 0002199  93.3507 266.7946 14.43281847475033
IRIDIUM 128             
1 42811U 17039J   26167.58123457 -.00000004  00000+0 -85231-5 0  9992
2 42811  86.3965  25.4035 0001885  88.0505 272.0906 14.34217621469895
IRIDIUM 121             
1 42812U 17039K   26167.53975460  .00000131  00000+0  39717-4 0  9993
2 42812  86.3972 353.9425 0002113  90.9229 269.2209 14.34218714469737
IRIDIUM 133             
1 42955U 17061A   26167.61294731  .00000007  00000+0 -45688-5 0  9998
2 42955  86.3966  25.5080 0001978  85.9873 274.1549 14.34216919454690
IRIDIUM 100             
1 42956U 17061B   26167.60660472  .00000057  00000+0  13422-4 0  9991
2 42956  86.3967  25.4295 0002155  87.1013 273.0430 14.34216955454694
IRIDIUM 122             
1 42957U 17061C   26167.57489259  .00000049  00000+0  10302-4 0  9995
2 42957  86.3967  25.4429 0002160  83.6517 276.4925 14.34217812454699
IRIDIUM 129             
1 42958U 17061D   26167.60026342 -.00000031  00000+0 -17965-4 0  9995
2 42958  86.3965  25.4992 0002296  85.2709 274.8749 14.34217397454711
IRIDIUM 119             
1 42959U 17061E   26167.56854994  .00000028  00000+0  30345-5 0  9995
2 42959  86.3968  25.5084 0002221  84.0288 276.1161 14.34217784454729
IRIDIUM 107             
1 42960U 17061F   26167.58757724  .00000147  00000+0  45357-4 0  9992
2 42960  86.3969  25.5218 0001944  82.0681 278.0736 14.34216761454731
IRIDIUM 132             
1 42961U 17061G   26167.59392060  .00000053  00000+0  12036-4 0  9996
2 42961  86.3968  25.4986 0002163  85.0462 275.0981 14.34217630454731
IRIDIUM 136             
1 42962U 17061H   26167.55587373  .00000190  00000+0  60704-4 0  9993
2 42962  86.3969  25.5212 0002174  88.3523 271.7922 14.34219312454740
IRIDIUM 139             
1 42963U 17061J   26167.56220697  .00000053  00000+0  11916-4 0  9997
2 42963  86.3972  25.5805 0002076  87.9067 272.2366 14.34217961454759
IRIDIUM 125             
1 42964U 17061K   26167.54952805  .00000131  00000+0  39596-4 0  9990
2 42964  86.3972  25.6468 0002203  73.0131 287.1307 14.34213986454760
